[{"OBJECT_NAME":"STARLINK-36704","OBJECT_ID":"2026-025E","EPOCH":"2026-03-07T07:24:20.984544","MEAN_MOTION":15.75201365,"ECCENTRICITY":0.00020666,"INCLINATION":97.2842,"RA_OF_ASC_NODE":177.745,"ARG_OF_PERICENTER":77.3448,"MEAN_ANOMALY":282.8048,"EPHEMERIS_TYPE":0,"CLASSIFICATION_TYPE":"U","NORAD_CAT_ID":67697,"ELEMENT_SET_NO":999,"REV_AT_EPOCH":556,"BSTAR":0.0019940327,"MEAN_MOTION_DOT":0.00308445,"MEAN_MOTION_DDOT":0},{"OBJECT_NAME":"STARLINK-36697","OBJECT_ID":"2026-025F","EPOCH":"2026-03-07T06:25:34.302432","MEAN_MOTION":15.80877945,"ECCENTRICITY":6.526e-5,"INCLINATION":97.2839,"RA_OF_ASC_NODE":177.8028,"ARG_OF_PERICENTER":11.0115,"MEAN_ANOMALY":349.1168,"EPHEMERIS_TYPE":0,"CLASSIFICATION_TYPE":"U","NORAD_CAT_ID":67698,"ELEMENT_SET_NO":999,"REV_AT_EPOCH":556,"BSTAR":0.0015073564,"MEAN_MOTION_DOT":0.00299582,"MEAN_MOTION_DDOT":0},{"OBJECT_NAME":"STARLINK-36716","OBJECT_ID":"2026-025G","EPOCH":"2026-03-07T06:00:00.999648","MEAN_MOTION":15.75187802,"ECCENTRICITY":0.00014347,"INCLINATION":97.2838,"RA_OF_ASC_NODE":177.7577,"ARG_OF_PERICENTER":92.3567,"MEAN_ANOMALY":103.8732,"EPHEMERIS_TYPE":0,"CLASSIFICATION_TYPE":"U","NORAD_CAT_ID":67699,"ELEMENT_SET_NO":999,"REV_AT_EPOCH":562,"BSTAR":4.9053015e-5,"MEAN_MOTION_DOT":7.192e-5,"MEAN_MOTION_DDOT":0},{"OBJECT_NAME":"STARLINK-36712","OBJECT_ID":"2026-025H","EPOCH":"2026-03-07T07:10:07.464864","MEAN_MOTION":15.75209001,"ECCENTRICITY":0.00019033,"INCLINATION":97.2853,"RA_OF_ASC_NODE":177.7589,"ARG_OF_PERICENTER":9.4213,"MEAN_ANOMALY":350.7087,"EPHEMERIS_TYPE":0,"CLASSIFICATION_TYPE":"U","NORAD_CAT_ID":67700,"ELEMENT_SET_NO":999,"REV_AT_EPOCH":556,"BSTAR":0.0023508022,"MEAN_MOTION_DOT":0.00366276,"MEAN_MOTION_DDOT":0},{"OBJECT_NAME":"STARLINK-36713","OBJECT_ID":"2026-025J","EPOCH":"2026-03-07T07:12:39.861504","MEAN_MOTION":15.75204303,"ECCENTRICITY":0.00020216,"INCLINATION":97.2852,"RA_OF_ASC_NODE":177.7556,"ARG_OF_PERICENTER":22.3465,"MEAN_ANOMALY":337.7888,"EPHEMERIS_TYPE":0,"CLASSIFICATION_TYPE":"U","NORAD_CAT_ID":67701,"ELEMENT_SET_NO":999,"REV_AT_EPOCH":557,"BSTAR":0.0023068619,"MEAN_MOTION_DOT":0.00359046,"MEAN_MOTION_DDOT":0},{"OBJECT_NAME":"STARLINK-36695","OBJECT_ID":"2026-025K","EPOCH":"2026-03-07T07:15:43.218720","MEAN_MOTION":15.75205531,"ECCENTRICITY":0.00032757,"INCLINATION":97.2854,"RA_OF_ASC_NODE":177.7517,"ARG_OF_PERICENTER":14.2534,"MEAN_ANOMALY":345.8823,"EPHEMERIS_TYPE":0,"CLASSIFICATION_TYPE":"U","NORAD_CAT_ID":67702,"ELEMENT_SET_NO":999,"REV_AT_EPOCH":556,"BSTAR":0.0027611687,"MEAN_MOTION_DOT":0.00433635,"MEAN_MOTION_DDOT":0},{"OBJECT_NAME":"STARLINK-36630","OBJECT_ID":"2026-025L","EPOCH":"2026-03-07T06:00:00.999648","MEAN_MOTION":15.75171401,"ECCENTRICITY":0.00017798,"INCLINATION":97.284,"RA_OF_ASC_NODE":177.7957,"ARG_OF_PERICENTER":85.1246,"MEAN_ANOMALY":201.0749,"EPHEMERIS_TYPE":0,"CLASSIFICATION_TYPE":"U","NORAD_CAT_ID":67703,"ELEMENT_SET_NO":999,"REV_AT_EPOCH":546,"BSTAR":0.00028562755,"MEAN_MOTION_DOT":0.00042653,"MEAN_MOTION_DDOT":0},{"OBJECT_NAME":"STARLINK-36338","OBJECT_ID":"2026-025M","EPOCH":"2026-03-07T06:44:42.570528","MEAN_MOTION":15.75214743,"ECCENTRICITY":0.00013055,"INCLINATION":97.285,"RA_OF_ASC_NODE":177.7808,"ARG_OF_PERICENTER":65.3545,"MEAN_ANOMALY":294.7856,"EPHEMERIS_TYPE":0,"CLASSIFICATION_TYPE":"U","NORAD_CAT_ID":67704,"ELEMENT_SET_NO":999,"REV_AT_EPOCH":556,"BSTAR":0.0013306506,"MEAN_MOTION_DOT":0.00203361,"MEAN_MOTION_DDOT":0},{"OBJECT_NAME":"STARLINK-36316","OBJECT_ID":"2026-025N","EPOCH":"2026-03-07T06:58:56.623296","MEAN_MOTION":15.7521344,"ECCENTRICITY":0.00020195,"INCLINATION":97.2856,"RA_OF_ASC_NODE":177.7682,"ARG_OF_PERICENTER":3.191,"MEAN_ANOMALY":356.9368,"EPHEMERIS_TYPE":0,"CLASSIFICATION_TYPE":"U","NORAD_CAT_ID":67705,"ELEMENT_SET_NO":999,"REV_AT_EPOCH":556,"BSTAR":0.0027618187,"MEAN_MOTION_DOT":0.0043389,"MEAN_MOTION_DDOT":0},{"OBJECT_NAME":"STARLINK-36707","OBJECT_ID":"2026-025P","EPOCH":"2026-03-07T06:30:29.088000","MEAN_MOTION":15.75276094,"ECCENTRICITY":9.005e-5,"INCLINATION":97.284,"RA_OF_ASC_NODE":177.7947,"ARG_OF_PERICENTER":97.3699,"MEAN_ANOMALY":262.7669,"EPHEMERIS_TYPE":0,"CLASSIFICATION_TYPE":"U","NORAD_CAT_ID":67706,"ELEMENT_SET_NO":999,"REV_AT_EPOCH":556,"BSTAR":0.002057156,"MEAN_MOTION_DOT":0.00319674,"MEAN_MOTION_DDOT":0},{"OBJECT_NAME":"STARLINK-36645","OBJECT_ID":"2026-025Q","EPOCH":"2026-03-07T07:04:32.138688","MEAN_MOTION":15.75214365,"ECCENTRICITY":0.00021475,"INCLINATION":97.2855,"RA_OF_ASC_NODE":177.7632,"ARG_OF_PERICENTER":1.0118,"MEAN_ANOMALY":359.1151,"EPHEMERIS_TYPE":0,"CLASSIFICATION_TYPE":"U","NORAD_CAT_ID":67707,"ELEMENT_SET_NO":999,"REV_AT_EPOCH":556,"BSTAR":0.0026192094,"MEAN_MOTION_DOT":0.00410345,"MEAN_MOTION_DDOT":0},{"OBJECT_NAME":"STARLINK-36287","OBJECT_ID":"2026-025R","EPOCH":"2026-03-07T06:00:00.999648","MEAN_MOTION":15.75178741,"ECCENTRICITY":0.00016335,"INCLINATION":97.2846,"RA_OF_ASC_NODE":177.8048,"ARG_OF_PERICENTER":93.536,"MEAN_ANOMALY":216.6822,"EPHEMERIS_TYPE":0,"CLASSIFICATION_TYPE":"U","NORAD_CAT_ID":67708,"ELEMENT_SET_NO":999,"REV_AT_EPOCH":562,"BSTAR":0.0005478526,"MEAN_MOTION_DOT":0.00082339,"MEAN_MOTION_DDOT":0},{"OBJECT_NAME":"STARLINK-36698","OBJECT_ID":"2026-025S","EPOCH":"2026-03-07T06:00:00.999648","MEAN_MOTION":15.7521041,"ECCENTRICITY":0.00011467,"INCLINATION":97.2849,"RA_OF_ASC_NODE":177.8237,"ARG_OF_PERICENTER":78.9845,"MEAN_ANOMALY":275.2256,"EPHEMERIS_TYPE":0,"CLASSIFICATION_TYPE":"U","NORAD_CAT_ID":67709,"ELEMENT_SET_NO":999,"REV_AT_EPOCH":546,"BSTAR":-0.00024811974,"MEAN_MOTION_DOT":-0.0003701,"MEAN_MOTION_DDOT":0},{"OBJECT_NAME":"STARLINK-36344","OBJECT_ID":"2026-025T","EPOCH":"2026-03-07T06:24:22.842720","MEAN_MOTION":15.75238713,"ECCENTRICITY":0.00015426,"INCLINATION":97.284,"RA_OF_ASC_NODE":177.8009,"ARG_OF_PERICENTER":106.6761,"MEAN_ANOMALY":253.4674,"EPHEMERIS_TYPE":0,"CLASSIFICATION_TYPE":"U","NORAD_CAT_ID":67710,"ELEMENT_SET_NO":999,"REV_AT_EPOCH":557,"BSTAR":0.0016898461,"MEAN_MOTION_DOT":0.00260305,"MEAN_MOTION_DDOT":0},{"OBJECT_NAME":"STARLINK-36687","OBJECT_ID":"2026-025U","EPOCH":"2026-03-07T05:53:49.238592","MEAN_MOTION":15.81005478,"ECCENTRICITY":0.000109,"INCLINATION":97.2851,"RA_OF_ASC_NODE":177.8296,"ARG_OF_PERICENTER":81.1221,"MEAN_ANOMALY":279.0171,"EPHEMERIS_TYPE":0,"CLASSIFICATION_TYPE":"U","NORAD_CAT_ID":67711,"ELEMENT_SET_NO":999,"REV_AT_EPOCH":557,"BSTAR":0.0026076124,"MEAN_MOTION_DOT":0.00535924,"MEAN_MOTION_DDOT":0},{"OBJECT_NAME":"STARLINK-36705","OBJECT_ID":"2026-025V","EPOCH":"2026-03-07T06:36:04.278528","MEAN_MOTION":15.75239531,"ECCENTRICITY":0.00014301,"INCLINATION":97.2847,"RA_OF_ASC_NODE":177.786,"ARG_OF_PERICENTER":71.8573,"MEAN_ANOMALY":288.2847,"EPHEMERIS_TYPE":0,"CLASSIFICATION_TYPE":"U","NORAD_CAT_ID":67712,"ELEMENT_SET_NO":999,"REV_AT_EPOCH":556,"BSTAR":0.0017059157,"MEAN_MOTION_DOT":0.00262871,"MEAN_MOTION_DDOT":0},{"OBJECT_NAME":"STARLINK-36708","OBJECT_ID":"2026-025W","EPOCH":"2026-03-07T06:00:00.999648","MEAN_MOTION":15.62629476,"ECCENTRICITY":0.00015935,"INCLINATION":97.2844,"RA_OF_ASC_NODE":177.8064,"ARG_OF_PERICENTER":61.6367,"MEAN_ANOMALY":254.6538,"EPHEMERIS_TYPE":0,"CLASSIFICATION_TYPE":"U","NORAD_CAT_ID":67713,"ELEMENT_SET_NO":999,"REV_AT_EPOCH":552,"BSTAR":-0.025922008,"MEAN_MOTION_DOT":-0.02030229,"MEAN_MOTION_DDOT":0},{"OBJECT_NAME":"STARLINK-36702","OBJECT_ID":"2026-025X","EPOCH":"2026-03-07T06:00:00.999648","MEAN_MOTION":15.75156816,"ECCENTRICITY":8.529e-5,"INCLINATION":97.2852,"RA_OF_ASC_NODE":177.844,"ARG_OF_PERICENTER":82.4182,"MEAN_ANOMALY":317.7965,"EPHEMERIS_TYPE":0,"CLASSIFICATION_TYPE":"U","NORAD_CAT_ID":67714,"ELEMENT_SET_NO":999,"REV_AT_EPOCH":526,"BSTAR":0.00047044117,"MEAN_MOTION_DOT":0.00070518,"MEAN_MOTION_DDOT":0},{"OBJECT_NAME":"STARLINK-36718","OBJECT_ID":"2026-025Y","EPOCH":"2026-03-07T07:03:20.809440","MEAN_MOTION":15.81084233,"ECCENTRICITY":0.00016561,"INCLINATION":97.2868,"RA_OF_ASC_NODE":177.9135,"ARG_OF_PERICENTER":113.6061,"MEAN_ANOMALY":246.5381,"EPHEMERIS_TYPE":0,"CLASSIFICATION_TYPE":"U","NORAD_CAT_ID":67715,"ELEMENT_SET_NO":999,"REV_AT_EPOCH":557,"BSTAR":0.0024302679,"MEAN_MOTION_DOT":0.00499084,"MEAN_MOTION_DDOT":0},{"OBJECT_NAME":"STARLINK-36715","OBJECT_ID":"2026-025Z","EPOCH":"2026-03-07T07:06:18.714816","MEAN_MOTION":15.80954461,"ECCENTRICITY":0.00013253,"INCLINATION":97.286,"RA_OF_ASC_NODE":177.9135,"ARG_OF_PERICENTER":84.5481,"MEAN_ANOMALY":275.5938,"EPHEMERIS_TYPE":0,"CLASSIFICATION_TYPE":"U","NORAD_CAT_ID":67716,"ELEMENT_SET_NO":999,"REV_AT_EPOCH":557,"BSTAR":0.0015309505,"MEAN_MOTION_DOT":0.0030554,"MEAN_MOTION_DDOT":0},{"OBJECT_NAME":"STARLINK-36385","OBJECT_ID":"2026-025AA","EPOCH":"2026-03-07T05:44:10.136544","MEAN_MOTION":15.81079878,"ECCENTRICITY":0.0001003,"INCLINATION":97.2875,"RA_OF_ASC_NODE":177.8377,"ARG_OF_PERICENTER":77.1328,"MEAN_ANOMALY":283.0053,"EPHEMERIS_TYPE":0,"CLASSIFICATION_TYPE":"U","NORAD_CAT_ID":67717,"ELEMENT_SET_NO":999,"REV_AT_EPOCH":556,"BSTAR":0.0027044816,"MEAN_MOTION_DOT":0.00559256,"MEAN_MOTION_DDOT":0},{"OBJECT_NAME":"CZ-2F DEB","OBJECT_ID":"2026-024E","EPOCH":"2026-03-07T06:01:32.121408","MEAN_MOTION":15.24634798,"ECCENTRICITY":0.02347408,"INCLINATION":50.319,"RA_OF_ASC_NODE":30.6698,"ARG_OF_PERICENTER":270.3052,"MEAN_ANOMALY":87.1014,"EPHEMERIS_TYPE":0,"CLASSIFICATION_TYPE":"U","NORAD_CAT_ID":67718,"ELEMENT_SET_NO":999,"REV_AT_EPOCH":426,"BSTAR":0.0052120445,"MEAN_MOTION_DOT":0.00300853,"MEAN_MOTION_DDOT":0},{"OBJECT_NAME":"CZ-2F DEB","OBJECT_ID":"2026-024F","EPOCH":"2026-03-07T06:55:16.889088","MEAN_MOTION":15.02941693,"ECCENTRICITY":0.03131411,"INCLINATION":49.793,"RA_OF_ASC_NODE":33.5061,"ARG_OF_PERICENTER":261.8114,"MEAN_ANOMALY":94.7206,"EPHEMERIS_TYPE":0,"CLASSIFICATION_TYPE":"U","NORAD_CAT_ID":67719,"ELEMENT_SET_NO":999,"REV_AT_EPOCH":388,"BSTAR":0.0048733074,"MEAN_MOTION_DOT":0.00204994,"MEAN_MOTION_DDOT":0}]
